QZS-1R                  
1 49336U 21096A   24276.51126134 -.00000216  00000+0  00000+0 0  9995
2 49336  36.1660  88.9010 0744947 269.9917 332.1258  1.00286013 10762
